[{"OBJECT_NAME":"STARLINK-34336","OBJECT_ID":"2025-130AA","EPOCH":"2026-03-09T08:18:45.157536","MEAN_MOTION":15.30161213,"ECCENTRICITY":0.00011591,"INCLINATION":53.1586,"RA_OF_ASC_NODE":92.6753,"ARG_OF_PERICENTER":80.73,"MEAN_ANOMALY":279.3832,"EPHEMERIS_TYPE":0,"CLASSIFICATION_TYPE":"U","NORAD_CAT_ID":64462,"ELEMENT_SET_NO":999,"REV_AT_EPOCH":4061,"BSTAR":0.00058711216,"MEAN_MOTION_DOT":0.00017049,"MEAN_MOTION_DDOT":0},{"OBJECT_NAME":"COSMOS 2251 DEB","OBJECT_ID":"1993-036AWN","EPOCH":"2026-03-09T06:26:08.321568","MEAN_MOTION":15.11257706,"ECCENTRICITY":0.00842289,"INCLINATION":74.0116,"RA_OF_ASC_NODE":284.5024,"ARG_OF_PERICENTER":350.308,"MEAN_ANOMALY":9.6482,"EPHEMERIS_TYPE":0,"CLASSIFICATION_TYPE":"U","NORAD_CAT_ID":35996,"ELEMENT_SET_NO":999,"REV_AT_EPOCH":73632,"BSTAR":0.00055219842,"MEAN_MOTION_DOT":0.00010085,"MEAN_MOTION_DDOT":0}]
